FLOCK 4Q-16             
1 58271U 23174R   26197.22179147  .00013128  00000+0  23241-3 0  9997
2 58271  97.3829 286.0273 0006786  74.4821 285.7179 15.50398690150072
FLOCK 4Q-11             
1 58273U 23174T   26197.19448323  .00013301  00000+0  23132-3 0  9992
2 58273  97.3863 286.6367 0006254  68.2220 291.9697 15.50904205150086
FLOCK 4Q-28             
1 58280U 23174AA  26197.17926862  .00017655  00000+0  24764-3 0  9995
2 58280  97.3888 289.3654 0004723  60.9215 299.2513 15.56801242150252
FLOCK 4Q-27             
1 58282U 23174AC  26197.24520893  .00018628  00000+0  25930-3 0  9996
2 58282  97.3814 288.8400 0003907  66.6719 293.4947 15.57000230150279
FLOCK 4Q-7              
1 58318U 23174BQ  26197.19886253  .00020600  00000+0  28213-3 0  9995
2 58318  97.3915 289.7135 0004473  38.7691 321.3885 15.57413924150263
FLOCK 4Q-2              
1 58320U 23174BS  26197.24385979  .00014602  00000+0  25414-3 0  9998
2 58320  97.3844 286.3994 0004717  48.3528 311.8127 15.50870306150100
FLOCK 4Q-9              
1 58322U 23174BU  26197.19570743  .00016854  00000+0  28763-3 0  9990
2 58322  97.3857 286.4622 0005588  46.8133 313.3585 15.51386008150081
FLOCK 4Q-4              
1 58327U 23174BZ  26197.21093249  .00013609  00000+0  24527-3 0  9998
2 58327  97.3832 285.5904 0005693  71.7862 288.4009 15.49889476150059
FLOCK 4Q-13             
1 58328U 23174CA  26197.19398430  .00013456  00000+0  21789-3 0  9993
2 58328  97.4008 288.8848 0005838  52.8672 307.3114 15.52911479150173
FLOCK 4BE-18            
1 60480U 24149N   26197.21173552  .00007818  00000+0  18097-3 0  9990
2 60480  97.3730 281.2626 0005103 141.6151 218.5460 15.42729488106782
FLOCK 4BE-7             
1 60481U 24149P   26197.18082088  .00013467  00000+0  32321-3 0  9993
2 60481  97.3756 280.5199 0004354 146.0545 214.0981 15.41483947106719
FLOCK 4BE-36            
1 60486U 24149U   26197.16767391  .00009247  00000+0  20781-3 0  9991
2 60486  97.3743 281.9598 0004847 150.0465 210.1061 15.43560013106821
FLOCK 4BE-25            
1 60487U 24149V   26197.21258168  .00007592  00000+0  19516-3 0  9990
2 60487  97.3802 280.5730 0003669 141.2064 218.9445 15.39561503106708
FLOCK 4BE-31            
1 60488U 24149W   26197.17046609  .00012146  00000+0  25778-3 0  9999
2 60488  97.3797 282.9086 0003829 149.1467 211.0007 15.45182922106859
FLOCK 4BE-20            
1 60489U 24149X   26197.19019288  .00008686  00000+0  22827-3 0  9991
2 60489  97.3691 279.3574 0005113 151.0739 209.0790 15.38831395106670
FLOCK 4BE-23            
1 60490U 24149Y   26197.18836747  .00007649  00000+0  20427-3 0  9991
2 60490  97.3777 279.7464 0004749 153.5549 206.5939 15.38379949106656
