{"fetched_at":"2026-07-16T17:46:07.288Z","source":"https://celestrak.org/NORAD/elements/gp.php?GROUP=planet&FORMAT=JSON","constellation":"superdove","records":[{"OBJECT_NAME":"FLOCK 4Q-16","OBJECT_ID":"2023-174R","EPOCH":"2026-07-16T05:19:22.783008","CLASSIFICATION_TYPE":"U","MEAN_MOTION":15.5039869,"ECCENTRICITY":0.00067867,"INCLINATION":97.3829,"RA_OF_ASC_NODE":286.0273,"ARG_OF_PERICENTER":74.4821,"MEAN_ANOMALY":285.7179,"EPHEMERIS_TYPE":0,"NORAD_CAT_ID":58271,"ELEMENT_SET_NO":999,"REV_AT_EPOCH":15007,"BSTAR":0.00023240875,"MEAN_MOTION_DOT":0.00013128,"MEAN_MOTION_DDOT":0},{"OBJECT_NAME":"FLOCK 4Q-11","OBJECT_ID":"2023-174T","EPOCH":"2026-07-16T04:40:03.351072","CLASSIFICATION_TYPE":"U","MEAN_MOTION":15.50904205,"ECCENTRICITY":0.00062541,"INCLINATION":97.3863,"RA_OF_ASC_NODE":286.6367,"ARG_OF_PERICENTER":68.222,"MEAN_ANOMALY":291.9697,"EPHEMERIS_TYPE":0,"NORAD_CAT_ID":58273,"ELEMENT_SET_NO":999,"REV_AT_EPOCH":15008,"BSTAR":0.00023132137,"MEAN_MOTION_DOT":0.00013301,"MEAN_MOTION_DDOT":0},{"OBJECT_NAME":"FLOCK 4Q-28","OBJECT_ID":"2023-174AA","EPOCH":"2026-07-16T04:18:08.808768","CLASSIFICATION_TYPE":"U","MEAN_MOTION":15.56801242,"ECCENTRICITY":0.00047235,"INCLINATION":97.3888,"RA_OF_ASC_NODE":289.3654,"ARG_OF_PERICENTER":60.9215,"MEAN_ANOMALY":299.2513,"EPHEMERIS_TYPE":0,"NORAD_CAT_ID":58280,"ELEMENT_SET_NO":999,"REV_AT_EPOCH":15025,"BSTAR":0.00024764197,"MEAN_MOTION_DOT":0.00017655,"MEAN_MOTION_DDOT":0},{"OBJECT_NAME":"FLOCK 4Q-27","OBJECT_ID":"2023-174AC","EPOCH":"2026-07-16T05:53:06.051552","CLASSIFICATION_TYPE":"U","MEAN_MOTION":15.5700023,"ECCENTRICITY":0.00039072,"INCLINATION":97.3814,"RA_OF_ASC_NODE":288.84,"ARG_OF_PERICENTER":66.6719,"MEAN_ANOMALY":293.4947,"EPHEMERIS_TYPE":0,"NORAD_CAT_ID":58282,"ELEMENT_SET_NO":999,"REV_AT_EPOCH":15027,"BSTAR":0.00025930333,"MEAN_MOTION_DOT":0.00018628,"MEAN_MOTION_DDOT":0},{"OBJECT_NAME":"FLOCK 4Q-7","OBJECT_ID":"2023-174BQ","EPOCH":"2026-07-16T04:46:21.722592","CLASSIFICATION_TYPE":"U","MEAN_MOTION":15.57413924,"ECCENTRICITY":0.00044738,"INCLINATION":97.3915,"RA_OF_ASC_NODE":289.7135,"ARG_OF_PERICENTER":38.7691,"MEAN_ANOMALY":321.3885,"EPHEMERIS_TYPE":0,"NORAD_CAT_ID":58318,"ELEMENT_SET_NO":999,"REV_AT_EPOCH":15026,"BSTAR":0.00028213415,"MEAN_MOTION_DOT":0.000206,"MEAN_MOTION_DDOT":0},{"OBJECT_NAME":"FLOCK 4Q-2","OBJECT_ID":"2023-174BS","EPOCH":"2026-07-16T05:51:09.485856","CLASSIFICATION_TYPE":"U","MEAN_MOTION":15.50870306,"ECCENTRICITY":0.00047176,"INCLINATION":97.3844,"RA_OF_ASC_NODE":286.3994,"ARG_OF_PERICENTER":48.3528,"MEAN_ANOMALY":311.8127,"EPHEMERIS_TYPE":0,"NORAD_CAT_ID":58320,"ELEMENT_SET_NO":999,"REV_AT_EPOCH":15010,"BSTAR":0.00025413533,"MEAN_MOTION_DOT":0.00014602,"MEAN_MOTION_DDOT":0},{"OBJECT_NAME":"FLOCK 4Q-9","OBJECT_ID":"2023-174BU","EPOCH":"2026-07-16T04:41:49.121952","CLASSIFICATION_TYPE":"U","MEAN_MOTION":15.51386008,"ECCENTRICITY":0.00055887,"INCLINATION":97.3857,"RA_OF_ASC_NODE":286.4622,"ARG_OF_PERICENTER":46.8133,"MEAN_ANOMALY":313.3585,"EPHEMERIS_TYPE":0,"NORAD_CAT_ID":58322,"ELEMENT_SET_NO":999,"REV_AT_EPOCH":15008,"BSTAR":0.00028763405,"MEAN_MOTION_DOT":0.00016854,"MEAN_MOTION_DDOT":0},{"OBJECT_NAME":"FLOCK 4Q-4","OBJECT_ID":"2023-174BZ","EPOCH":"2026-07-16T05:03:44.567136","CLASSIFICATION_TYPE":"U","MEAN_MOTION":15.49889476,"ECCENTRICITY":0.00056936,"INCLINATION":97.3832,"RA_OF_ASC_NODE":285.5904,"ARG_OF_PERICENTER":71.7862,"MEAN_ANOMALY":288.4009,"EPHEMERIS_TYPE":0,"NORAD_CAT_ID":58327,"ELEMENT_SET_NO":999,"REV_AT_EPOCH":15005,"BSTAR":0.00024526787,"MEAN_MOTION_DOT":0.00013609,"MEAN_MOTION_DDOT":0},{"OBJECT_NAME":"FLOCK 4Q-13","OBJECT_ID":"2023-174CA","EPOCH":"2026-07-16T04:39:20.243520","CLASSIFICATION_TYPE":"U","MEAN_MOTION":15.52911479,"ECCENTRICITY":0.0005838,"INCLINATION":97.4008,"RA_OF_ASC_NODE":288.8848,"ARG_OF_PERICENTER":52.8672,"MEAN_ANOMALY":307.3114,"EPHEMERIS_TYPE":0,"NORAD_CAT_ID":58328,"ELEMENT_SET_NO":999,"REV_AT_EPOCH":15017,"BSTAR":0.00021789018,"MEAN_MOTION_DOT":0.00013456,"MEAN_MOTION_DDOT":0},{"OBJECT_NAME":"FLOCK 4BE-18","OBJECT_ID":"2024-149N","EPOCH":"2026-07-16T05:04:53.948928","CLASSIFICATION_TYPE":"U","MEAN_MOTION":15.42729488,"ECCENTRICITY":0.00051034,"INCLINATION":97.373,"RA_OF_ASC_NODE":281.2626,"ARG_OF_PERICENTER":141.6151,"MEAN_ANOMALY":218.546,"EPHEMERIS_TYPE":0,"NORAD_CAT_ID":60480,"ELEMENT_SET_NO":999,"REV_AT_EPOCH":10678,"BSTAR":0.00018097065,"MEAN_MOTION_DOT":0.00007818,"MEAN_MOTION_DDOT":0},{"OBJECT_NAME":"FLOCK 4BE-7","OBJECT_ID":"2024-149P","EPOCH":"2026-07-16T04:20:22.924032","CLASSIFICATION_TYPE":"U","MEAN_MOTION":15.41483947,"ECCENTRICITY":0.00043543,"INCLINATION":97.3756,"RA_OF_ASC_NODE":280.5199,"ARG_OF_PERICENTER":146.0545,"MEAN_ANOMALY":214.0981,"EPHEMERIS_TYPE":0,"NORAD_CAT_ID":60481,"ELEMENT_SET_NO":999,"REV_AT_EPOCH":10671,"BSTAR":0.00032321088,"MEAN_MOTION_DOT":0.00013467,"MEAN_MOTION_DDOT":0},{"OBJECT_NAME":"FLOCK 4BE-36","OBJECT_ID":"2024-149U","EPOCH":"2026-07-16T04:01:27.025824","CLASSIFICATION_TYPE":"U","MEAN_MOTION":15.43560013,"ECCENTRICITY":0.0004847,"INCLINATION":97.3743,"RA_OF_ASC_NODE":281.9598,"ARG_OF_PERICENTER":150.0465,"MEAN_ANOMALY":210.1061,"EPHEMERIS_TYPE":0,"NORAD_CAT_ID":60486,"ELEMENT_SET_NO":999,"REV_AT_EPOCH":10682,"BSTAR":0.00020781096,"MEAN_MOTION_DOT":0.00009247,"MEAN_MOTION_DDOT":0},{"OBJECT_NAME":"FLOCK 4BE-25","OBJECT_ID":"2024-149V","EPOCH":"2026-07-16T05:06:07.057152","CLASSIFICATION_TYPE":"U","MEAN_MOTION":15.39561503,"ECCENTRICITY":0.0003669,"INCLINATION":97.3802,"RA_OF_ASC_NODE":280.573,"ARG_OF_PERICENTER":141.2064,"MEAN_ANOMALY":218.9445,"EPHEMERIS_TYPE":0,"NORAD_CAT_ID":60487,"ELEMENT_SET_NO":999,"REV_AT_EPOCH":10670,"BSTAR":0.00019515999,"MEAN_MOTION_DOT":0.00007592,"MEAN_MOTION_DDOT":0},{"OBJECT_NAME":"FLOCK 4BE-31","OBJECT_ID":"2024-149W","EPOCH":"2026-07-16T04:05:28.270176","CLASSIFICATION_TYPE":"U","MEAN_MOTION":15.45182922,"ECCENTRICITY":0.0003829,"INCLINATION":97.3797,"RA_OF_ASC_NODE":282.9086,"ARG_OF_PERICENTER":149.1467,"MEAN_ANOMALY":211.0007,"EPHEMERIS_TYPE":0,"NORAD_CAT_ID":60488,"ELEMENT_SET_NO":999,"REV_AT_EPOCH":10685,"BSTAR":0.00025778489,"MEAN_MOTION_DOT":0.00012146,"MEAN_MOTION_DDOT":0},{"OBJECT_NAME":"FLOCK 4BE-20","OBJECT_ID":"2024-149X","EPOCH":"2026-07-16T04:33:52.664832","CLASSIFICATION_TYPE":"U","MEAN_MOTION":15.38831395,"ECCENTRICITY":0.00051132,"INCLINATION":97.3691,"RA_OF_ASC_NODE":279.3574,"ARG_OF_PERICENTER":151.0739,"MEAN_ANOMALY":209.079,"EPHEMERIS_TYPE":0,"NORAD_CAT_ID":60489,"ELEMENT_SET_NO":999,"REV_AT_EPOCH":10667,"BSTAR":0.00022826745,"MEAN_MOTION_DOT":0.00008686,"MEAN_MOTION_DDOT":0},{"OBJECT_NAME":"FLOCK 4BE-23","OBJECT_ID":"2024-149Y","EPOCH":"2026-07-16T04:31:14.949408","CLASSIFICATION_TYPE":"U","MEAN_MOTION":15.38379949,"ECCENTRICITY":0.00047491,"INCLINATION":97.3777,"RA_OF_ASC_NODE":279.7464,"ARG_OF_PERICENTER":153.5549,"MEAN_ANOMALY":206.5939,"EPHEMERIS_TYPE":0,"NORAD_CAT_ID":60490,"ELEMENT_SET_NO":999,"REV_AT_EPOCH":10665,"BSTAR":0.00020426683,"MEAN_MOTION_DOT":0.00007649,"MEAN_MOTION_DDOT":0}]}
